IRIDIUM 106             
1 41917U 17003A   25205.60206183  .00000045  00000+0  89462-5 0  9995
2 41917  86.3953 225.3663 0001835  96.9073 263.2332 14.34217860446254
IRIDIUM 103             
1 41918U 17003B   25205.58937748 -.00000002  00000+0 -79453-5 0  9995
2 41918  86.3955 225.2723 0002063  75.1860 284.9564 14.34217459446273
IRIDIUM 109             
1 41919U 17003C   25205.59572028  .00000008  00000+0 -43414-5 0  9996
2 41919  86.3956 225.3237 0002284  87.5983 272.5474 14.34217636446241
IRIDIUM 102             
1 41920U 17003D   25205.56400725 -.00000001  00000+0 -75749-5 0  9999
2 41920  86.3955 225.2676 0002307  91.6217 268.5243 14.34217584446320
IRIDIUM 105             
1 41921U 17003E   25205.46497301  .00000085  00000+0  23134-4 0  9995
2 41921  86.3995 193.7892 0002280  83.4486 276.6969 14.34218455448168
IRIDIUM 104             
1 41922U 17003F   25205.57669356  .00000150  00000+0  46562-4 0  9992
2 41922  86.3953 225.2998 0002528  83.0747 277.0736 14.34217915446314
IRIDIUM 114             
1 41923U 17003G   25205.58303477  .00000042  00000+0  80328-5 0  9992
2 41923  86.3953 225.2817 0002144  84.9542 275.1898 14.34217891446290
IRIDIUM 108             
1 41924U 17003H   25205.47178728 -.00000040  00000+0 -21241-4 0  9998
2 41924  86.3994 193.6856 0002107  92.7742 267.3694 14.34217259448135
